[{"OBJECT_NAME":"ONEWEB-0375","OBJECT_ID":"2021-090Y","EPOCH":"2026-03-09T15:09:00.735264","MEAN_MOTION":13.20771291,"ECCENTRICITY":0.0001311,"INCLINATION":87.9171,"RA_OF_ASC_NODE":294.3117,"ARG_OF_PERICENTER":66.2917,"MEAN_ANOMALY":293.8354,"EPHEMERIS_TYPE":0,"CLASSIFICATION_TYPE":"U","NORAD_CAT_ID":49301,"ELEMENT_SET_NO":999,"REV_AT_EPOCH":21738,"BSTAR":-0.00021076,"MEAN_MOTION_DOT":-7.3e-7,"MEAN_MOTION_DDOT":0},{"OBJECT_NAME":"SL-14 DEB","OBJECT_ID":"1991-056CH","EPOCH":"2026-03-08T02:33:42.992640","MEAN_MOTION":13.19264193,"ECCENTRICITY":0.00204985,"INCLINATION":82.5676,"RA_OF_ASC_NODE":207.1224,"ARG_OF_PERICENTER":344.2819,"MEAN_ANOMALY":15.7666,"EPHEMERIS_TYPE":0,"CLASSIFICATION_TYPE":"U","NORAD_CAT_ID":45348,"ELEMENT_SET_NO":999,"REV_AT_EPOCH":28962,"BSTAR":7.7069029e-5,"MEAN_MOTION_DOT":4.3e-7,"MEAN_MOTION_DDOT":0}]
